QIANFAN-9               
1 60387U 24140J   25335.20445703  .00000084  00000+0  11219-3 0  9996
2 60387  88.9751 300.5306 0014549 227.6081 132.3840 13.50978984 65770
QIANFAN-10              
1 60388U 24140K   25335.20864833  .00000086  00000+0  11433-3 0  9996
2 60388  88.9761 299.8762 0013550 202.1241 157.9327 13.50979614 65904
QIANFAN-11              
1 60389U 24140L   25335.24570425  .00000088  00000+0  11844-3 0  9990
2 60389  88.9687 300.4682 0012594 226.5754 133.4350 13.50975845 65567
QIANFAN-12              
1 60390U 24140M   25335.19214201  .00000094  00000+0  12756-3 0  9993
2 60390  88.9730 300.5122 0011281 235.7937 124.2146 13.50976537 65688
QIANFAN-13              
1 60391U 24140N   25335.31147281  .00000096  00000+0  12953-3 0  9992
2 60391  88.9743 300.5983 0011080 238.4527 121.5543 13.50977071 65720
QIANFAN-14              
1 60392U 24140P   25335.18793180  .00000083  00000+0  10940-3 0  9993
2 60392  88.9721 300.5111 0014754 239.5045 120.4649 13.50976613 65713
QIANFAN-15              
1 60393U 24140Q   25335.19621129  .00000099  00000+0  13511-3 0  9992
2 60393  88.9745 300.4640 0010774 222.5985 137.4331 13.50975407 65704
QIANFAN-16              
1 60394U 24140R   25335.18401144  .00000080  00000+0  10610-3 0  9992
2 60394  88.9748 300.5852 0012659 243.6457 116.3395 13.50975510 65617
